ONEWEB-0350             
1 49214U 21083AE  24300.82103748  .00000016  00000+0  85306-5 0  9999
2 49214  87.8892  79.2492 0001271  88.9599 271.1676 13.13470587152384
ONEWEB-0351             
1 49215U 21083AF  24300.78055460 -.00000102  00000+0 -28365-3 0  9990
2 49215  87.9291  33.4770 0002366  81.4865 278.6537 13.20772641157781
ONEWEB-0352             
1 49216U 21083AG  24301.10670563 -.00000184  00000+0 -53951-3 0  9994
2 49216  87.8895  79.2266 0001801  83.0771 277.0563 13.13469919153811
ONEWEB-0354             
1 49217U 21083AH  24301.48772279 -.00006932  00000+0 -17086-1 0  9997
2 49217  87.9291  33.3267 0001611 100.3780 259.7535 13.20805742159220
ONEWEB-0355             
1 49218U 21083AJ  24301.13686050  .00000230  00000+0  59502-3 0  9995
2 49218  87.8895  79.2202 0001546  86.4950 273.6356 13.13469827153691
ONEWEB-0357             
1 49219U 21083AK  24301.03004224 -.00000053  00000+0 -16193-3 0  9996
2 49219  87.9290  33.4312 0001783  93.7387 266.3950 13.20773516159151
ONEWEB-0332             
1 49279U 21090A   24301.00896012 -.00000033  00000+0 -12369-3 0  9990
2 49279  87.9019  48.6687 0002017 100.4573 259.6784 13.14500042148998
ONEWEB-0347             
1 49280U 21090B   24301.02059077 -.00000089  00000+0 -25122-3 0  9998
2 49280  87.9294  33.4349 0002207 105.1678 254.9700 13.20770429152087
